$$SOE
2461288.500000000, A.D. 2026-Sep-05 00:00:00.0000, 1.485066266740064E+08, -3.077698669782392E+08, -5.513812052983329E+06,
2461295.500000000, A.D. 2026-Sep-12 00:00:00.0000, 1.586934853355805E+08, -3.020828990342228E+08, -5.159913200623274E+06,
2461302.500000000, A.D. 2026-Sep-19 00:00:00.0000, 1.686865408771951E+08, -2.960270282622812E+08, -4.799712948863015E+06,
2461309.500000000, A.D. 2026-Sep-26 00:00:00.0000, 1.784726444011280E+08, -2.896079982475098E+08, -4.433624305237800E+06,
2461316.500000000, A.D. 2026-Oct-03 00:00:00.0000, 1.880387514745102E+08, -2.828320044202392E+08, -4.062070620126009E+06,
2461323.500000000, A.D. 2026-Oct-10 00:00:00.0000, 1.973719358999563E+08, -2.757056975234354E+08, -3.685485409073249E+06,
2461330.500000000, A.D. 2026-Oct-17 00:00:00.0000, 2.064594040537409E+08, -2.682361869192753E+08, -3.304312160172313E+06,
2461337.500000000, A.D. 2026-Oct-24 00:00:00.0000, 2.152885098282197E+08, -2.604310437092086E+08, -2.919004128858402E+06,
2461344.500000000, A.D. 2026-Oct-31 00:00:00.0000, 2.238467702889457E+08, -2.522983036803245E+08, -2.530024133222312E+06,
2461351.500000000, A.D. 2026-Nov-07 00:00:00.0000, 2.321218823987021E+08, -2.438464699481621E+08, -2.137844373261511E+06,
2461358.500000000, A.D. 2026-Nov-14 00:00:00.0000, 2.401017410218609E+08, -2.350845143550647E+08, -1.742946217750072E+06,
2461365.500000000, A.D. 2026-Nov-21 00:00:00.0000, 2.477744564037110E+08, -2.260218768885851E+08, -1.345819734533980E+06,
2461372.500000000, A.D. 2026-Nov-28 00:00:00.0000, 2.551283701251276E+08, -2.166684660675727E+08, -9.469631167778373E+05,
2461379.500000000, A.D. 2026-Dec-05 00:00:00.0000, 2.621520731472195E+08, -2.070346608850091E+08, -5.468823892554939E+05,
2461386.500000000, A.D. 2026-Dec-12 00:00:00.0000, 2.688344261054627E+08, -1.971313111291266E+08, -1.460911537086517E+05,
2461393.500000000, A.D. 2026-Dec-19 00:00:00.0000, 2.751645799563779E+08, -1.869697360093169E+08, 2.548898023699671E+05,
2461400.500000000, A.D. 2026-Dec-26 00:00:00.0000, 2.811319968182572E+08, -1.765617218855331E+08, 6.555329775384590E+05,
2461407.500000000, A.D. 2027-Jan-02 00:00:00.0000, 2.867264712595397E+08, -1.659195192203735E+08, 1.055304669629782E+06,
2461414.500000000, A.D. 2027-Jan-09 00:00:00.0000, 2.919381521234881E+08, -1.550558386604215E+08, 1.453665522962190E+06,
2461421.500000000, A.D. 2027-Jan-16 00:00:00.0000, 2.967575648896756E+08, -1.439838461641820E+08, 1.850071108560801E+06,
2461428.500000000, A.D. 2027-Jan-23 00:00:00.0000, 3.011756345753752E+08, -1.327171571425168E+08, 2.243972531197764E+06,
2461435.500000000, A.D. 2027-Jan-30 00:00:00.0000, 3.051837093112987E+08, -1.212698295843917E+08, 2.634817042763807E+06,
2461442.500000000, A.D. 2027-Feb-06 00:00:00.0000, 3.087735849553484E+08, -1.096563557491363E+08, 3.022048651163809E+06,
2461449.500000000, A.D. 2027-Feb-13 00:00:00.0000, 3.119375302230477E+08, -9.789165112837756E+07, 3.405108867853932E+06,
2461456.500000000, A.D. 2027-Feb-20 00:00:00.0000, 3.146683099047393E+08, -8.599104140107912E+07, 3.783437747482296E+06,
2461463.500000000, A.D. 2027-Feb-27 00:00:00.0000, 3.169592074819110E+08, -7.397025052994113E+07, 4.156474828728661E+06,
2461470.500000000, A.D. 2027-Mar-06 00:00:00.0000, 3.188040500657743E+08, -6.184538800772765E+07, 4.523659855850998E+06,
2461477.500000000, A.D. 2027-Mar-13 00:00:00.0000, 3.201972339599586E+08, -4.963293313932156E+07, 4.884433594813855E+06,
2461484.500000000, A.D. 2027-Mar-20 00:00:00.0000, 3.211337496134880E+08, -3.734971713694165E+07, 5.238238778884569E+06,
2461491.500000000, A.D. 2027-Mar-27 00:00:00.0000, 3.216092060522493E+08, -2.501290352675718E+07, 5.584521119402309E+06,
2461498.500000000, A.D. 2027-Apr-03 00:00:00.0000, 3.216198548691652E+08, -1.263996687064761E+07, 5.922730357929435E+06,
2461505.500000000, A.D. 2027-Apr-10 00:00:00.0000, 3.211626137037106E+08, -2.486697437643176E+05, 6.252321354469515E+06,
2461512.500000000, A.D. 2027-Apr-17 00:00:00.0000, 3.202350890954689E+08, 1.214296204523618E+07, 6.572755206728868E+06,
2461519.500000000, A.D. 2027-Apr-24 00:00:00.0000, 3.188355986480319E+08, 2.451666594585253E+07, 6.883500385975812E+06,
2461526.500000000, A.D. 2027-May-01 00:00:00.0000, 3.169631926530079E+08, 3.685397090017724E+07, 7.184033861458024E+06,
2461533.500000000, A.D. 2027-May-08 00:00:00.0000, 3.146176753201271E+08, 4.913622805951031E+07, 7.473842242535984E+06,
2461540.500000000, A.D. 2027-May-15 00:00:00.0000, 3.117996239540638E+08, 6.134464492095760E+07, 7.752423150891479E+06,
2461547.500000000, A.D. 2027-May-22 00:00:00.0000, 3.085104043627741E+08, 7.346032025610808E+07, 8.019286752070796E+06,
2461554.500000000, A.D. 2027-May-29 00:00:00.0000, 3.047521856873313E+08, 8.546427829856899E+07, 8.273957012725238E+06,
2461561.500000000, A.D. 2027-Jun-05 00:00:00.0000, 3.005279553520638E+08, 9.733750524634486E+07, 8.515972850435063E+06,
2461568.500000000, A.D. 2027-Jun-12 00:00:00.0000, 2.958415319430147E+08, 1.090609884299551E+08, 8.744889388165690E+06,
2461575.500000000, A.D. 2027-Jun-19 00:00:00.0000, 2.906975755121641E+08, 1.206157571214973E+08, 8.960279261365041E+06,
2461582.500000000, A.D. 2027-Jun-26 00:00:00.0000, 2.851015954328237E+08, 1.319829246173113E+08, 9.161733926318191E+06,
2461589.500000000, A.D. 2027-Jul-03 00:00:00.0000, 2.790599557978853E+08, 1.431437314722512E+08, 9.348864954101928E+06,
2461596.500000000, A.D. 2027-Jul-10 00:00:00.0000, 2.725798782627566E+08, 1.540795897391523E+08, 9.521305301972874E+06,
2461603.500000000, A.D. 2027-Jul-17 00:00:00.0000, 2.656694422374875E+08, 1.647721280002535E+08, 9.678710548766501E+06,
2461610.500000000, A.D. 2027-Jul-24 00:00:00.0000, 2.583375824608417E+08, 1.752032369393720E+08, 9.820760067240611E+06,
2461617.500000000, A.D. 2027-Jul-31 00:00:00.0000, 2.505940842592396E+08, 1.853551154878792E+08, 9.947158106902748E+06,
2461624.500000000, A.D. 2027-Aug-07 00:00:00.0000, 2.424495761936612E+08, 1.952103184739639E+08, 1.005763489080907E+07,
2461631.500000000, A.D. 2027-Aug-14 00:00:00.0000, 2.339155177044931E+08, 2.047518052912014E+08, 1.015194790860066E+07,
2461638.500000000, A.D. 2027-Aug-21 00:00:00.0000, 2.250041823196764E+08, 2.139629859962002E+08, 1.022988306856681E+07,
2461645.500000000, A.D. 2027-Aug-28 00:00:00.0000, 2.157286398354642E+08, 2.228277657911541E+08, 1.029125548467205E+07,
2461652.500000000, A.D. 2027-Sep-04 00:00:00.0000, 2.061027362742946E+08, 2.313305901317229E+08, 1.033591020294492E+07,
2461659.500000000, A.D. 2027-Sep-11 00:00:00.0000, 1.961410702333358E+08, 2.394564895387790E+08, 1.036372293416533E+07,
2461666.500000000, A.D. 2027-Sep-18 00:00:00.0000, 1.858589657945461E+08, 2.471911232033592E+08, 1.037460072108062E+07,
2461673.500000000, A.D. 2027-Sep-25 00:00:00.0000, 1.752724422887749E+08, 2.545208210467598E+08, 1.036848250674026E+07,
2461680.500000000, A.D. 2027-Oct-02 00:00:00.0000, 1.643981810778484E+08, 2.614326240059618E+08, 1.034533959376806E+07,
2461687.500000000, A.D. 2027-Oct-09 00:00:00.0000, 1.532534894910705E+08, 2.679143222886943E+08, 1.030517598727234E+07,
2461694.500000000, A.D. 2027-Oct-16 00:00:00.0000, 1.418562621177915E+08, 2.739544913014140E+08, 1.024802860706545E+07,
2461701.500000000, A.D. 2027-Oct-23 00:00:00.0000, 1.302249398782213E+08, 2.795425250160239E+08, 1.017396734183447E+07,
2461708.500000000, A.D. 2027-Oct-30 00:00:00.0000, 1.183784674345213E+08, 2.846686671751122E+08, 1.008309495862772E+07,
2461715.500000000, A.D. 2027-Nov-06 00:00:00.0000, 1.063362479920071E+08, 2.893240412658851E+08, 9.975547064369783E+06,
2461722.500000000, A.D. 2027-Nov-13 00:00:00.0000, 9.411809372720774E+07, 2.935006769952617E+08, 9.851492130821273E+06,
2461729.500000000, A.D. 2027-Nov-20 00:00:00.0000, 8.174417497881518E+07, 2.971915309309320E+08, 9.711131140649527E+06,
2461736.500000000, A.D. 2027-Nov-27 00:00:00.0000, 6.923497008867168E+07, 3.003905041543132E+08, 9.554696950143740E+06,
2461743.500000000, A.D. 2027-Dec-04 00:00:00.0000, 5.661121414811327E+07, 3.030924577255972E+08, 9.382453630183652E+06,
2461750.500000000, A.D. 2027-Dec-11 00:00:00.0000, 4.389384638043410E+07, 3.052932249074348E+08, 9.194695760094047E+06,
2461757.500000000, A.D. 2027-Dec-18 00:00:00.0000, 3.110395672194656E+07, 3.069896197464505E+08, 8.991747625061721E+06,
2461764.500000000, A.D. 2027-Dec-25 00:00:00.0000, 1.826273204162616E+07, 3.081794419750219E+08, 8.773962307163492E+06,
2461771.500000000, A.D. 2028-Jan-01 00:00:00.0000, 5.391402324542281E+06, 3.088614782423406E+08, 8.541720672592595E+06,
$$EOE